$$SOE
2460154.500000000, A.D. 2023-Jul-29 00:00:00.0000, 3.115034515650972E+08, 1.748282480134188E+08, 4.316006691604143E+07,
2460161.500000000, A.D. 2023-Aug-05 00:00:00.0000, 3.071996540304853E+08, 1.858970233071761E+08, 4.276645655225181E+07,
2460168.500000000, A.D. 2023-Aug-12 00:00:00.0000, 3.025806483304129E+08, 1.967751149316816E+08, 4.232889612331893E+07,
2460175.500000000, A.D. 2023-Aug-19 00:00:00.0000, 2.976557833578239E+08, 2.074543464678963E+08, 4.184847888975957E+07,
2460182.500000000, A.D. 2023-Aug-26 00:00:00.0000, 2.924344992820711E+08, 2.179270192842562E+08, 4.132631737139213E+07,
2460189.500000000, A.D. 2023-Sep-02 00:00:00.0000, 2.869263048403606E+08, 2.281859009340536E+08, 4.076354022394241E+07,
2460196.500000000, A.D. 2023-Sep-09 00:00:00.0000, 2.811407562549758E+08, 2.382242127274517E+08, 4.016128930160874E+07,
2460203.500000000, A.D. 2023-Sep-16 00:00:00.0000, 2.750874379079509E+08, 2.480356165621005E+08, 3.952071688315216E+07,
2460210.500000000, A.D. 2023-Sep-23 00:00:00.0000, 2.687759451467211E+08, 2.576142014288646E+08, 3.884298304327019E+07,
2460217.500000000, A.D. 2023-Sep-30 00:00:00.0000, 2.622158688308567E+08, 2.669544708969720E+08, 3.812925329196140E+07,
2460224.500000000, A.D. 2023-Oct-07 00:00:00.0000, 2.554167792034813E+08, 2.760513311363435E+08, 3.738069664599961E+07,
2460231.500000000, A.D. 2023-Oct-14 00:00:00.0000, 2.483882100627210E+08, 2.849000762614564E+08, 3.659848376023887E+07,
2460238.500000000, A.D. 2023-Oct-21 00:00:00.0000, 2.411396463991408E+08, 2.934963726851252E+08, 3.578378494662549E+07,
2460245.500000000, A.D. 2023-Oct-28 00:00:00.0000, 2.336805140046362E+08, 3.018362448164628E+08, 3.493776838854779E+07,
2460252.500000000, A.D. 2023-Nov-04 00:00:00.0000, 2.260201697332650E+08, 3.099160614029467E+08, 3.406159859607081E+07,
2460259.500000000, A.D. 2023-Nov-11 00:00:00.0000, 2.181678925272228E+08, 3.177325219792325E+08, 3.315643503094418E+07,
2460266.500000000, A.D. 2023-Nov-18 00:00:00.0000, 2.101328753647874E+08, 3.252826434098249E+08, 3.222343086918995E+07,
2460273.500000000, A.D. 2023-Nov-25 00:00:00.0000, 2.019242181392082E+08, 3.325637465896280E+08, 3.126373188860928E+07,
2460280.500000000, A.D. 2023-Dec-02 00:00:00.0000, 1.935509214315385E+08, 3.395734433256125E+08, 3.027847546956776E+07,
2460287.500000000, A.D. 2023-Dec-09 00:00:00.0000, 1.850218811903736E+08, 3.463096233705884E+08, 2.926878968932323E+07,
2460294.500000000, A.D. 2023-Dec-16 00:00:00.0000, 1.763458845436710E+08, 3.527704416484093E+08, 2.823579247742526E+07,
2460301.500000000, A.D. 2023-Dec-23 00:00:00.0000, 1.675316070334422E+08, 3.589543063815901E+08, 2.718059084974699E+07,
2460308.500000000, A.D. 2023-Dec-30 00:00:00.0000, 1.585876098800103E+08, 3.648598691867821E+08, 2.610428042284229E+07,
2460315.500000000, A.D. 2024-Jan-06 00:00:00.0000, 1.495223354487338E+08, 3.704860147857453E+08, 2.500794517130987E+07,
2460322.500000000, A.D. 2024-Jan-13 00:00:00.0000, 1.403441040398973E+08, 3.758318485368833E+08, 2.389265698379150E+07,
2460329.500000000, A.D. 2024-Jan-20 00:00:00.0000, 1.310611131820614E+08, 3.808966848806682E+08, 2.275947515130392E+07,
2460336.500000000, A.D. 2024-Jan-27 00:00:00.0000, 1.216814373567591E+08, 3.856800373508536E+08, 2.160944602064613E+07,
2460343.500000000, A.D. 2024-Feb-03 00:00:00.0000, 1.122130276828763E+08, 3.901816092010023E+08, 2.044360276869455E+07,
2460350.500000000, A.D. 2024-Feb-10 00:00:00.0000, 1.026637117978478E+08, 3.944012843528465E+08, 1.926296524290758E+07,
2460357.500000000, A.D. 2024-Feb-17 00:00:00.0000, 9.304119403710002E+07, 3.983391186705331E+08, 1.806853985086423E+07,
2460364.500000000, A.D. 2024-Feb-24 00:00:00.0000, 8.335305591297635E+07, 4.019953315701454E+08, 1.686131949197349E+07,
2460371.500000000, A.D. 2024-Mar-02 00:00:00.0000, 7.360675689017411E+07, 4.053702979252573E+08, 1.564228352157068E+07,
2460378.500000000, A.D. 2024-Mar-09 00:00:00.0000, 6.380963556635794E+07, 4.084645401979508E+08, 1.441239772543103E+07,
2460385.500000000, A.D. 2024-Mar-16 00:00:00.0000, 5.396891162514984E+07, 4.112787209845366E+08, 1.317261428080195E+07,
2460392.500000000, A.D. 2024-Mar-23 00:00:00.0000, 4.409168843262757E+07, 4.138136370775083E+08, 1.192387180051765E+07,
2460399.500000000, A.D. 2024-Mar-30 00:00:00.0000, 3.418495401463646E+07, 4.160702150067266E+08, 1.066709565998185E+07,
2460406.500000000, A.D. 2024-Apr-06 00:00:00.0000, 2.425558064822531E+07, 4.180495046773969E+08, 9.403198305312783E+06,
2460413.500000000, A.D. 2024-Apr-13 00:00:00.0000, 1.431032659497791E+07, 4.197526719324802E+08, 8.133079282927543E+06,
2460420.500000000, A.D. 2024-Apr-20 00:00:00.0000, 4.355839007060946E+06, 4.211809927094345E+08, 6.857625293915004E+06,
2460427.500000000, A.D. 2024-Apr-27 00:00:00.0000, -5.601343526571236E+06, 4.223358482182183E+08, 5.577710363890618E+06,
2460434.500000000, A.D. 2024-May-04 00:00:00.0000, -1.555478872185623E+07, 4.232187204254097E+08, 4.294196060662627E+06,
2460441.500000000, A.D. 2024-May-11 00:00:00.0000, -2.549816840559886E+07, 4.238311877322187E+08, 3.007931727635115E+06,
2460448.500000000, A.D. 2024-May-18 00:00:00.0000, -3.542525631707359E+07, 4.241749208582285E+08, 1.719754725465178E+06,
2460455.500000000, A.D. 2024-May-25 00:00:00.0000, -4.532992589255539E+07, 4.242516789143537E+08, 4.304906775421202E+05,
2460462.500000000, A.D. 2024-Jun-01 00:00:00.0000, -5.520614798365162E+07, 4.240633055984678E+08, -8.590462923398316E+05,
2460469.500000000, A.D. 2024-Jun-08 00:00:00.0000, -6.504798827246678E+07, 4.236117254816957E+08, -2.148053355923146E+06,
2460476.500000000, A.D. 2024-Jun-15 00:00:00.0000, -7.484960399230893E+07, 4.228989409214124E+08, -3.435738803378552E+06,
2460483.500000000, A.D. 2024-Jun-22 00:00:00.0000, -8.460524096592359E+07, 4.219270307673749E+08, -4.721321706144184E+06,
2460490.500000000, A.D. 2024-Jun-29 00:00:00.0000, -9.430923308729878E+07, 4.206981490287024E+08, -6.004031374902219E+06,
2460497.500000000, A.D. 2024-Jul-06 00:00:00.0000, -1.039560016090815E+08, 4.192145210148984E+08, -7.283107057318449E+06,
2460504.500000000, A.D. 2024-Jul-13 00:00:00.0000, -1.135400522978265E+08, 4.174784397660339E+08, -8.557797823717177E+06,
2460511.500000000, A.D. 2024-Jul-20 00:00:00.0000, -1.230559724507012E+08, 4.154922639174308E+08, -9.827362365605861E+06,
2460518.500000000, A.D. 2024-Jul-27 00:00:00.0000, -1.324984284346231E+08, 4.132584160345111E+08, -1.109106872624069E+07,
2460525.500000000, A.D. 2024-Aug-03 00:00:00.0000, -1.418621634789988E+08, 4.107793810374002E+08, -1.234819401988018E+07,
2460532.500000000, A.D. 2024-Aug-10 00:00:00.0000, -1.511419955595456E+08, 4.080577047050801E+08, -1.359802415631375E+07,
2460539.500000000, A.D. 2024-Aug-17 00:00:00.0000, -1.603328153287423E+08, 4.050959922745144E+08, -1.483985357417271E+07,
2460546.500000000, A.D. 2024-Aug-24 00:00:00.0000, -1.694295840679826E+08, 4.018969071059643E+08, -1.607298498823097E+07,
2460553.500000000, A.D. 2024-Aug-31 00:00:00.0000, -1.784273315488077E+08, 3.984631693466135E+08, -1.729672916705713E+07,
2460560.500000000, A.D. 2024-Sep-07 00:00:00.0000, -1.873211534408503E+08, 3.947975547127976E+08, -1.851040476487215E+07,
2460567.500000000, A.D. 2024-Sep-14 00:00:00.0000, -1.961062081848411E+08, 3.909028943814844E+08, -1.971333813472223E+07,
2460574.500000000, A.D. 2024-Sep-21 00:00:00.0000, -2.047777153629679E+08, 3.867820764003099E+08, -2.090486290408431E+07,
2460581.500000000, A.D. 2024-Sep-28 00:00:00.0000, -2.133309560547305E+08, 3.824380453844541E+08, -2.208431953262530E+07,
2460588.500000000, A.D. 2024-Oct-05 00:00:00.0000, -2.217612715097748E+08, 3.778738004941948E+08, -2.325105518842085E+07,
2460595.500000000, A.D. 2024-Oct-12 00:00:00.0000, -2.300640605033072E+08, 3.730923946690069E+08, -2.440442366645280E+07,
2460602.500000000, A.D. 2024-Oct-19 00:00:00.0000, -2.382347771279961E+08, 3.680969348461674E+08, -2.554378521178575E+07,
2460609.500000000, A.D. 2024-Oct-26 00:00:00.0000, -2.462689290559590E+08, 3.628905823593660E+08, -2.666850631033574E+07,
2460616.500000000, A.D. 2024-Nov-02 00:00:00.0000, -2.541620760152432E+08, 3.574765533652426E+08, -2.777795948316789E+07,
2460623.500000000, A.D. 2024-Nov-09 00:00:00.0000, -2.619098283863384E+08, 3.518581193154227E+08, -2.887152309173690E+07,
2460630.500000000, A.D. 2024-Nov-16 00:00:00.0000, -2.695078458950112E+08, 3.460386074716288E+08, -2.994858115669134E+07,
2460637.500000000, A.D. 2024-Nov-23 00:00:00.0000, -2.769518363567237E+08, 3.400214014115250E+08, -3.100852319888102E+07,
2460644.500000000, A.D. 2024-Nov-30 00:00:00.0000, -2.842375542665638E+08, 3.338099414802560E+08, -3.205074412537926E+07,
2460651.500000000, A.D. 2024-Dec-07 00:00:00.0000, -2.913607988177142E+08, 3.274077256058635E+08, -3.307464416480525E+07,
2460658.500000000, A.D. 2024-Dec-14 00:00:00.0000, -2.983174120405176E+08, 3.208183117005218E+08, -3.407962868909316E+07,
2460665.500000000, A.D. 2024-Dec-21 00:00:00.0000, -3.051032793846843E+08, 3.140453204065782E+08, -3.506510781116509E+07,
2460672.500000000, A.D. 2024-Dec-28 00:00:00.0000, -3.117143307733672E+08, 3.070924352192901E+08, -3.603049618215907E+07,
2460679.500000000, A.D. 2025-Jan-04 00:00:00.0000, -3.181465395332248E+08, 2.999634023580775E+08, -3.697521303171925E+07,
2460686.500000000, A.D. 2025-Jan-11 00:00:00.0000, -3.243959210272919E+08, 2.926620320439013E+08, -3.789868214907891E+07,
2460693.500000000, A.D. 2025-Jan-18 00:00:00.0000, -3.304585319124089E+08, 2.851922002645640E+08, -3.880033179678789E+07,
2460700.500000000, A.D. 2025-Jan-25 00:00:00.0000, -3.363304697807979E+08, 2.775578505529948E+08, -3.967959461861630E+07,
2460707.500000000, A.D. 2025-Feb-01 00:00:00.0000, -3.420078729994953E+08, 2.697629957472003E+08, -4.053590756175644E+07,
2460714.500000000, A.D. 2025-Feb-08 00:00:00.0000, -3.474869206927447E+08, 2.618117197503854E+08, -4.136871181742091E+07,
2460721.500000000, A.D. 2025-Feb-15 00:00:00.0000, -3.527638328419848E+08, 2.537081792700851E+08, -4.217745278448023E+07,
$$EOE